INTELSAT 34         [PM]
1 40874C 15039A   20219.30950232 -.00000287  00000-0  00000-0 0  2192
2 40874   0.0001  53.9314 0000432 352.0715 325.1995  1.00273781    17
INTELSAT 31             
1 41581C 16035A   20216.00000000  .00000001  00000-0  00000-0 0  2168
2 41581   0.0313 205.5290 0001420 357.0549  14.3882  1.00270361    18
INTELSAT 31             
1 41581C 16035A   20219.00000000 -.00000062  00000-0  00000-0 0  2192
2 41581   0.0275 204.6039 0001533   5.2023  10.1205  1.00270172    13
INTELSAT 31         [PM]
1 41581C 16035A   20219.41500000 -.00000063  00000-0  00000-0 0  2193
2 41581   0.0360 235.0234 0001583 337.7717 156.9360  1.00273451    15
INTELSAT 36             
1 41747C 16053A   20216.00000000  .00000069  00000-0  00000-0 0  2166
2 41747   0.0072  56.4236 0001824 324.5162 359.5796  1.00271216    13
INTELSAT 36             
1 41747C 16053A   20219.00000000  .00000060  00000-0  00000-0 0  2193
2 41747   0.0047  54.8798 0001789 319.8609   8.7433  1.00271457    11
INTELSAT 36         [PM]
1 41747C 16053A   20219.42116898  .00000066  00000-0  00000-0 0  2198
2 41747   0.0128  28.0180 0001706 333.2354 174.2650  1.00271920    10
INTELSAT 33E            
1 41748C 16053B   20216.00000000  .00000134  00000-0  00000-0 0  2160
2 41748   0.0054  63.3353 0002659  76.7536 231.9281  1.00273732    16
INTELSAT 33E            
1 41748C 16053B   20219.00000000  .00000139  00000-0  00000-0 0  2191
2 41748   0.0094  74.4443 0002073  61.9641 238.5710  1.00270582    16
INTELSAT 33E        [PM]
1 41748C 16053B   20221.76750000  .00000130  00000-0  00000-0 0  2213
2 41748   0.0056  49.2251 0002016  98.2559 146.5185  1.00271516    11
INTELSAT 32E            
1 41945C 17007B   20216.00000000 -.00000247  00000-0  00000-0 0  2165
2 41945   0.0000 113.4149 0000690 316.4825 198.9519  1.00270041    10
INTELSAT 32E        [PM]
1 41945C 17007B   20218.22771991 -.00000178  00000-0  00000-0 0  2180
2 41945   0.0000  99.6464 0000452 304.0251 309.3343  1.00274357    14
INTELSAT 32E            
1 41945C 17007B   20219.00000000 -.00000171  00000-0  00000-0 0  2197
2 41945   0.0030 107.7257 0000274 353.7894 170.2779  1.00270421    10
INTELSAT 35E            
1 42818C 17041A   20216.00000000 -.00000087  00000-0  00000-0 0  2165
2 42818   0.0537 252.3849 0002146 232.7920 152.3419  1.00270197    14
INTELSAT 35E            
1 42818C 17041A   20219.00000000 -.00000104  00000-0  00000-0 0  2191
2 42818   0.0489 264.4776 0001801 234.3768 141.6261  1.00273458    17
INTELSAT 35E        [PM]
1 42818C 17041A   20221.53054398 -.00000148  00000-0  00000-0 0  2212
2 42818   0.0526 256.7495 0001534 251.1017 326.1356  1.00272870    10
INTELSAT 37E            
1 42950C 17059A   20216.00000000 -.00000138  00000-0  00000-0 0  2168
2 42950   0.0390 243.9333 0003421 260.3821 149.6926  1.00271124    19
INTELSAT 37E            
1 42950C 17059A   20219.00000000 -.00000092  00000-0  00000-0 0  2193
2 42950   0.0023 140.6719 0003317   8.5743 147.7221  1.00272664    19
INTELSAT 37E        [PM]
1 42950C 17059A   20222.98194444 -.00000054  00000-0  00000-0 0  2222
2 42950   0.0198 219.8568 0003213 299.1948 135.3555  1.00272500    15
AZERSPACE 2             
1 43632C 18074A   20216.00000000  .00000227  00000-0  00000-0 0  2162
2 43632   0.0047 100.5587 0001793  29.0113 227.5496  1.00269854    14
AZERSPACE 2             
1 43632C 18074A   20219.00000000  .00000227  00000-0  00000-0 0  2198
2 43632   0.0085 111.2277 0001785  34.5735 214.2737  1.00271628    16
HORIZONS 3E             
1 43633C 18074B   20216.00000000  .00000031  00000-0  00000-0 0  2166
2 43633   0.0123 181.6153 0000134 348.3455 311.0559  1.00270373    10
HORIZONS 3E             
1 43633C 18074B   20219.00000000  .00000013  00000-0  00000-0 0  2192
2 43633   0.0030 183.3807 0000329  73.6728 226.9246  1.00270945    11
INTELSAT 39             
1 44476C 19049B   20216.00000000  .00000133  00000-0  00000-0 0  2168
2 44476   0.0001  52.4427 0000931 294.8932  26.6235  1.00270733    10
INTELSAT 39         [PM]
1 44476C 19049B   20218.35116898  .00000143  00000-0  00000-0 0  2184
2 44476   0.0004  33.1472 0000924 294.3289 175.2244  1.00272530    19
INTELSAT 39             
1 44476C 19049B   20219.00000000  .00000005  00000-0  00000-0 0  2192
2 44476   0.0000 139.2644 0000899 189.4133  48.2423  1.00270746    12
